{
  "type": "FeatureCollection",
  "features": [
    {
      "type": "Feature",
      "properties": {
        "norad_id": 28890,
        "name": "BEIJING 1",
        "group": "dmc",
        "lat": 28.077428884264844,
        "lon": -69.74646510232148,
        "alt_km": 671.0151523594268,
        "timestamp": "2025-12-04T07:39:35.836979+00:00",
        "meta_object_name": "BEIJING 1",
        "meta_object_id": "2005-043A",
        "meta_epoch": "2025-12-03T22:45:52.689600",
        "meta_mean_motion": 14.63353287,
        "meta_eccentricity": 0.00148723,
        "meta_inclination": 98.265,
        "meta_ra_of_asc_node": 105.435,
        "meta_arg_of_pericenter": 168.0524,
        "meta_mean_anomaly": 192.1034,
        "meta_ephemeris_type": 0,
        "meta_classification_type": "U",
        "meta_norad_cat_id": 28890,
        "meta_element_set_no": 999,
        "meta_rev_at_epoch": 7209,
        "meta_bstar": 0.00017075602,
        "meta_mean_motion_dot": 8.34e-06,
        "meta_mean_motion_ddot": 0,
        "tle_line1": "1 28890U 05043A   25337.94852650  .00000834  00000+0  17076-3 0  9996",
        "tle_line2": "2 28890  98.2650 105.4350 0014872 168.0524 192.1034 14.63353287 72095"
      },
      "geometry": {
        "type": "Point",
        "coordinates": [
          -69.74646510232148,
          28.077428884264844
        ]
      }
    },
    {
      "type": "Feature",
      "properties": {
        "norad_id": 33320,
        "name": "HUANJING 1A (HJ-1A)",
        "group": "dmc",
        "lat": -65.56530957431184,
        "lon": -15.815849550429087,
        "alt_km": 634.7063293296396,
        "timestamp": "2025-12-04T07:39:35.837014+00:00",
        "meta_object_name": "HUANJING 1A (HJ-1A)",
        "meta_object_id": "2008-041A",
        "meta_epoch": "2025-12-03T23:51:56.367360",
        "meta_mean_motion": 14.83350196,
        "meta_eccentricity": 0.00206181,
        "meta_inclination": 97.6531,
        "meta_ra_of_asc_node": 326.6588,
        "meta_arg_of_pericenter": 61.5697,
        "meta_mean_anomaly": 298.7592,
        "meta_ephemeris_type": 0,
        "meta_classification_type": "U",
        "meta_norad_cat_id": 33320,
        "meta_element_set_no": 999,
        "meta_rev_at_epoch": 92946,
        "meta_bstar": 0.00037646111,
        "meta_mean_motion_dot": 3.046e-05,
        "meta_mean_motion_ddot": 0,
        "tle_line1": "1 33320U 08041A   25337.99440240  .00003046  00000+0  37646-3 0  9997",
        "tle_line2": "2 33320  97.6531 326.6588 0020618  61.5697 298.7592 14.83350196929465"
      },
      "geometry": {
        "type": "Point",
        "coordinates": [
          -15.815849550429087,
          -65.56530957431184
        ]
      }
    },
    {
      "type": "Feature",
      "properties": {
        "norad_id": 33321,
        "name": "HUANJING 1B (HJ-1B)",
        "group": "dmc",
        "lat": 7.53011990501888,
        "lon": 151.70543715971874,
        "alt_km": 613.2920151779481,
        "timestamp": "2025-12-04T07:39:35.837027+00:00",
        "meta_object_name": "HUANJING 1B (HJ-1B)",
        "meta_object_id": "2008-041B",
        "meta_epoch": "2025-12-03T22:47:28.831200",
        "meta_mean_motion": 14.8278519,
        "meta_eccentricity": 0.0038159,
        "meta_inclination": 97.6396,
        "meta_ra_of_asc_node": 330.3357,
        "meta_arg_of_pericenter": 103.5461,
        "meta_mean_anomaly": 257.0009,
        "meta_ephemeris_type": 0,
        "meta_classification_type": "U",
        "meta_norad_cat_id": 33321,
        "meta_element_set_no": 999,
        "meta_rev_at_epoch": 92947,
        "meta_bstar": 0.00025431796,
        "meta_mean_motion_dot": 2.031e-05,
        "meta_mean_motion_ddot": 0,
        "tle_line1": "1 33321U 08041B   25337.94963925  .00002031  00000+0  25432-3 0  9996",
        "tle_line2": "2 33321  97.6396 330.3357 0038159 103.5461 257.0009 14.82785190929473"
      },
      "geometry": {
        "type": "Point",
        "coordinates": [
          151.70543715971874,
          7.53011990501888
        ]
      }
    },
    {
      "type": "Feature",
      "properties": {
        "norad_id": 33446,
        "name": "YAOGAN-4",
        "group": "dmc",
        "lat": 81.76996105038221,
        "lon": -165.67420974046868,
        "alt_km": 614.6232861339149,
        "timestamp": "2025-12-04T07:39:35.837037+00:00",
        "meta_object_name": "YAOGAN-4",
        "meta_object_id": "2008-061A",
        "meta_epoch": "2025-12-03T19:55:41.461536",
        "meta_mean_motion": 14.82635985,
        "meta_eccentricity": 0.00143425,
        "meta_inclination": 97.9169,
        "meta_ra_of_asc_node": 268.0176,
        "meta_arg_of_pericenter": 353.1456,
        "meta_mean_anomaly": 6.9559,
        "meta_ephemeris_type": 0,
        "meta_classification_type": "U",
        "meta_norad_cat_id": 33446,
        "meta_element_set_no": 999,
        "meta_rev_at_epoch": 91671,
        "meta_bstar": 0.00033242985,
        "meta_mean_motion_dot": 2.629e-05,
        "meta_mean_motion_ddot": 0,
        "tle_line1": "1 33446U 08061A   25337.83034099  .00002629  00000+0  33243-3 0  9997",
        "tle_line2": "2 33446  97.9169 268.0176 0014342 353.1456   6.9559 14.82635985916713"
      },
      "geometry": {
        "type": "Point",
        "coordinates": [
          -165.67420974046868,
          81.76996105038221
        ]
      }
    },
    {
      "type": "Feature",
      "properties": {
        "norad_id": 35681,
        "name": "DEIMOS-1",
        "group": "dmc",
        "lat": 82.18140506157883,
        "lon": 40.13659847751276,
        "alt_km": 636.0164706424821,
        "timestamp": "2025-12-04T07:39:35.837048+00:00",
        "meta_object_name": "DEIMOS-1",
        "meta_object_id": "2009-041A",
        "meta_epoch": "2025-12-03T23:06:25.373088",
        "meta_mean_motion": 14.74931905,
        "meta_eccentricity": 0.00026862,
        "meta_inclination": 97.7146,
        "meta_ra_of_asc_node": 138.9752,
        "meta_arg_of_pericenter": 95.9756,
        "meta_mean_anomaly": 264.176,
        "meta_ephemeris_type": 0,
        "meta_classification_type": "U",
        "meta_norad_cat_id": 35681,
        "meta_element_set_no": 999,
        "meta_rev_at_epoch": 87810,
        "meta_bstar": 0.00020692941,
        "meta_mean_motion_dot": 1.342e-05,
        "meta_mean_motion_ddot": 0,
        "tle_line1": "1 35681U 09041A   25337.96279367  .00001342  00000+0  20693-3 0  9998",
        "tle_line2": "2 35681  97.7146 138.9752 0002686  95.9756 264.1760 14.74931905878100"
      },
      "geometry": {
        "type": "Point",
        "coordinates": [
          40.13659847751276,
          82.18140506157883
        ]
      }
    },
    {
      "type": "Feature",
      "properties": {
        "norad_id": 35683,
        "name": "UK-DMC 2",
        "group": "dmc",
        "lat": 81.21898311994032,
        "lon": 50.1039782326302,
        "alt_km": 634.9554320971056,
        "timestamp": "2025-12-04T07:39:35.837057+00:00",
        "meta_object_name": "UK-DMC 2",
        "meta_object_id": "2009-041C",
        "meta_epoch": "2025-12-03T23:08:02.863392",
        "meta_mean_motion": 14.75591462,
        "meta_eccentricity": 0.00012972,
        "meta_inclination": 97.8557,
        "meta_ra_of_asc_node": 113.115,
        "meta_arg_of_pericenter": 102.4234,
        "meta_mean_anomaly": 257.7121,
        "meta_ephemeris_type": 0,
        "meta_classification_type": "U",
        "meta_norad_cat_id": 35683,
        "meta_element_set_no": 999,
        "meta_rev_at_epoch": 87777,
        "meta_bstar": 0.00028189008,
        "meta_mean_motion_dot": 1.873e-05,
        "meta_mean_motion_ddot": 0,
        "tle_line1": "1 35683U 09041C   25337.96392203  .00001873  00000+0  28189-3 0  9992",
        "tle_line2": "2 35683  97.8557 113.1150 0001297 102.4234 257.7121 14.75591462877770"
      },
      "geometry": {
        "type": "Point",
        "coordinates": [
          50.1039782326302,
          81.21898311994032
        ]
      }
    },
    {
      "type": "Feature",
      "properties": {
        "norad_id": 40715,
        "name": "DMC3-FM1",
        "group": "dmc",
        "lat": -17.803956721730103,
        "lon": 23.337608929102323,
        "alt_km": 620.6092731604258,
        "timestamp": "2025-12-04T07:39:35.837068+00:00",
        "meta_object_name": "DMC3-FM1",
        "meta_object_id": "2015-032A",
        "meta_epoch": "2025-12-03T22:41:17.914272",
        "meta_mean_motion": 14.85416316,
        "meta_eccentricity": 0.00052834,
        "meta_inclination": 97.6699,
        "meta_ra_of_asc_node": 205.4579,
        "meta_arg_of_pericenter": 352.5311,
        "meta_mean_anomaly": 7.5825,
        "meta_ephemeris_type": 0,
        "meta_classification_type": "U",
        "meta_norad_cat_id": 40715,
        "meta_element_set_no": 999,
        "meta_rev_at_epoch": 56092,
        "meta_bstar": 0.00018081573,
        "meta_mean_motion_dot": 1.506e-05,
        "meta_mean_motion_ddot": 0,
        "tle_line1": "1 40715U 15032A   25337.94534623  .00001506  00000+0  18082-3 0  9997",
        "tle_line2": "2 40715  97.6699 205.4579 0005283 352.5311   7.5825 14.85416316560923"
      },
      "geometry": {
        "type": "Point",
        "coordinates": [
          23.337608929102323,
          -17.803956721730103
        ]
      }
    },
    {
      "type": "Feature",
      "properties": {
        "norad_id": 40716,
        "name": "DMC3-FM2",
        "group": "dmc",
        "lat": 75.49100883432298,
        "lon": 175.84721164780933,
        "alt_km": 604.549639779987,
        "timestamp": "2025-12-04T07:39:35.837077+00:00",
        "meta_object_name": "DMC3-FM2",
        "meta_object_id": "2015-032B",
        "meta_epoch": "2025-12-03T23:13:42.403296",
        "meta_mean_motion": 14.85418265,
        "meta_eccentricity": 0.00059322,
        "meta_inclination": 97.6756,
        "meta_ra_of_asc_node": 206.9172,
        "meta_arg_of_pericenter": 356.626,
        "meta_mean_anomaly": 3.4914,
        "meta_ephemeris_type": 0,
        "meta_classification_type": "U",
        "meta_norad_cat_id": 40716,
        "meta_element_set_no": 999,
        "meta_rev_at_epoch": 56092,
        "meta_bstar": 0.00019015473,
        "meta_mean_motion_dot": 1.587e-05,
        "meta_mean_motion_ddot": 0,
        "tle_line1": "1 40716U 15032B   25337.96785189  .00001587  00000+0  19015-3 0  9991",
        "tle_line2": "2 40716  97.6756 206.9172 0005932 356.6260   3.4914 14.85418265560921"
      },
      "geometry": {
        "type": "Point",
        "coordinates": [
          175.84721164780933,
          75.49100883432298
        ]
      }
    },
    {
      "type": "Feature",
      "properties": {
        "norad_id": 40717,
        "name": "DMC3-FM3",
        "group": "dmc",
        "lat": -37.412079647354105,
        "lon": -145.19150204296017,
        "alt_km": 615.7004113464636,
        "timestamp": "2025-12-04T07:39:35.837087+00:00",
        "meta_object_name": "DMC3-FM3",
        "meta_object_id": "2015-032C",
        "meta_epoch": "2025-12-03T22:07:45.908832",
        "meta_mean_motion": 14.85409847,
        "meta_eccentricity": 0.00052962,
        "meta_inclination": 97.6811,
        "meta_ra_of_asc_node": 208.5002,
        "meta_arg_of_pericenter": 359.0348,
        "meta_mean_anomaly": 1.0856,
        "meta_ephemeris_type": 0,
        "meta_classification_type": "U",
        "meta_norad_cat_id": 40717,
        "meta_element_set_no": 999,
        "meta_rev_at_epoch": 56092,
        "meta_bstar": 0.00012992169,
        "meta_mean_motion_dot": 1.068e-05,
        "meta_mean_motion_ddot": 0,
        "tle_line1": "1 40717U 15032C   25337.92205913  .00001068  00000+0  12992-3 0  9991",
        "tle_line2": "2 40717  97.6811 208.5002 0005296 359.0348   1.0856 14.85409847560926"
      },
      "geometry": {
        "type": "Point",
        "coordinates": [
          -145.19150204296017,
          -37.412079647354105
        ]
      }
    }
  ]
}